NORAD_CAT_ID,OBJECT_NAME,OBJECT_TYPE,EPOCH,MEAN_MOTION,ECCENTRICITY,INCLINATION,RA_OF_ASC_NODE,ARG_OF_PERICENTER,MEAN_ANOMALY,BSTAR,MEAN_MOTION_DOT,MEAN_MOTION_DDOT,TLE_LINE0,TLE_LINE1,TLE_LINE2,SEMIMAJOR_AXIS,PERIOD,APOGEE,PERIGEE,DECAYED
56807.0,STARLINK-6073,PAYLOAD,2024-06-28 22:20:16,14.98324977,0.0002932,69.9995,84.3955,270.5414,89.5409,4.0043e-06,-4.5e-07,0.0,0 STARLINK-6073,1 56807U 23078AS  24180.93074776 -.00000045  00000-0  40043-5 0  9990,2 56807  69.9995  84.3955 0002932 270.5414  89.5409 14.98324977 60496,6950.208,96.107,574.111,570.036,0.0
56807.0,STARLINK-6073,PAYLOAD,2024-06-29 03:08:39,14.98335385,0.0003005,69.9993,83.8917,268.6798,91.4016,0.00012393,1.386e-05,0.0,0 STARLINK-6073,1 56807U 23078AS  24181.13101762  .00001386  00000-0  12393-3 0  9992,2 56807  69.9993  83.8917 0003005 268.6798  91.4016 14.98335385 60784,6950.176,96.107,574.13,569.953,0.0
56807.0,STARLINK-6073,PAYLOAD,2024-06-29 19:10:01,14.98319501,0.0003031,69.9999,82.208,265.77,94.3112,0.00013765,1.549e-05,0.0,0 STARLINK-6073,1 56807U 23078AS  24181.79862807  .00001549  00000-0  13765-3 0  9993,2 56807  69.9999  82.2080 0003031 265.7700  94.3112 14.98319501 60886,6950.225,96.108,574.197,569.984,0.0
56807.0,STARLINK-6073,PAYLOAD,2024-06-29 22:22:17,14.98319682,0.0003016,69.9997,81.8714,266.025,94.0565,0.00012115,1.352e-05,0.0,0 STARLINK-6073,1 56807U 23078AS  24181.93214937  .00001352  00000-0  12115-3 0  9994,2 56807  69.9997  81.8714 0003016 266.0250  94.0565 14.98319682 60643,6950.225,96.108,574.186,569.994,0.0
56807.0,STARLINK-6073,PAYLOAD,2024-06-30 03:10:41,14.98325786,0.0003121,69.9998,81.3678,271.6342,88.4459,7.64e-05,8.19e-06,0.0,0 STARLINK-6073,1 56807U 23078AS  24182.13242777  .00000819  00000-0  76400-4 0  9995,2 56807  69.9998  81.3678 0003121 271.6342  88.4459 14.98325786 60673,6950.206,96.107,574.24,569.902,0.0
56807.0,STARLINK-6073,PAYLOAD,2024-06-30 20:48:09,14.98350155,0.0002704,69.9996,79.5159,271.7539,88.331,-6.671e-05,-8.89e-06,0.0,0 STARLINK-6073,1 56807U 23078AS  24182.86677697 -.00000889  00000-0 -66710-4 0  9990,2 56807  69.9996  79.5159 0002704 271.7539  88.3310 14.98350155 61044,6950.131,96.106,573.875,570.116,0.0
56807.0,STARLINK-6073,PAYLOAD,2024-07-01 03:12:41,14.98348704,0.0002855,69.9997,78.8428,268.9215,91.1617,0.00010986,1.219e-05,0.0,0 STARLINK-6073,1 56807U 23078AS  24183.13381064  .00001219  00000-0  10986-3 0  9990,2 56807  69.9997  78.8428 0002855 268.9215  91.1617 14.98348704 60826,6950.135,96.106,573.984,570.016,0.0
56807.0,STARLINK-6073,PAYLOAD,2024-07-01 19:14:02,14.9833537,0.0002513,70.0004,77.1602,241.8143,118.2762,5.3113e-05,5.41e-06,0.0,0 STARLINK-6073,1 56807U 23078AS  24183.80141528  .00000541  00000-0  53113-4 0  9990,2 56807  70.0004  77.1602 0002513 241.8143 118.2762 14.98335370 61182,6950.176,96.107,573.788,570.295,0.0
56807.0,STARLINK-6073,PAYLOAD,2024-07-01 22:26:18,14.98333132,0.0002457,70.001,76.8239,247.5485,112.5414,5.5837e-05,5.73e-06,0.0,0 STARLINK-6073,1 56807U 23078AS  24183.93493651  .00000573  00000-0  55837-4 0  9991,2 56807  70.0010  76.8239 0002457 247.5485 112.5414 14.98333132 60948,6950.183,96.107,573.756,570.341,0.0
56807.0,STARLINK-6073,PAYLOAD,2024-07-02 09:39:15,14.98333171,0.0002959,69.9995,75.6422,270.6588,89.4232,-4.3196e-05,-6.08e-06,0.0,0 STARLINK-6073,1 56807U 23078AS  24184.40225783 -.00000608  00000-0 -43196-4 0  9999,2 56807  69.9995  75.6422 0002959 270.6588  89.4232 14.98333171 61276,6950.183,96.107,574.105,569.992,0.0
56807.0,STARLINK-6073,PAYLOAD,2024-07-02 22:28:19,14.98332832,0.0002677,69.9999,74.2967,261.7659,98.3196,-0.00012412,-1.574e-05,0.0,0 STARLINK-6073,1 56807U 23078AS  24184.93633880 -.00001574  00000-0 -12412-3 0  9997,2 56807  69.9999  74.2967 0002677 261.7659  98.3196 14.98332832 61097,6950.184,96.107,573.91,570.189,0.0
56807.0,STARLINK-6073,PAYLOAD,2024-07-03 09:41:15,14.98338126,0.0002874,70.0,73.1185,272.6141,87.4689,-0.00015275,-1.915e-05,0.0,0 STARLINK-6073,1 56807U 23078AS  24185.40365413 -.00001915  00000-0 -15275-3 0  9993,2 56807  70.0000  73.1185 0002874 272.6141  87.4689 14.98338126 61424,6950.168,96.106,574.03,570.035,0.0
56807.0,STARLINK-6073,PAYLOAD,2024-07-03 22:30:20,14.98312265,0.0003004,69.9998,71.7724,262.5712,97.5106,0.00028564,3.315e-05,0.0,0 STARLINK-6073,1 56807U 23078AS  24185.93773756  .00003315  00000-0  28564-3 0  9993,2 56807  69.9998  71.7724 0003004 262.5712  97.5106 14.98312265 61240,6950.248,96.108,574.201,570.025,0.0
56807.0,STARLINK-6073,PAYLOAD,2024-07-04 09:43:16,14.98333275,0.0003006,69.9992,70.5941,267.4771,92.6044,-4.6752e-05,-6.51e-06,0.0,0 STARLINK-6073,1 56807U 23078AS  24186.40505304 -.00000651  00000-0 -46752-4 0  9990,2 56807  69.9992  70.5941 0003006 267.4771  92.6044 14.98333275 61570,6950.183,96.107,574.137,569.959,0.0
56807.0,STARLINK-6073,PAYLOAD,2024-07-04 22:32:21,14.98327875,0.0003,69.9993,69.2476,271.7503,88.3312,-1.0567e-05,-2.19e-06,0.0,0 STARLINK-6073,1 56807U 23078AS  24186.93913658 -.00000219  00000-0 -10567-4 0  9998,2 56807  69.9993  69.2476 0003000 271.7503  88.3312 14.98327875 61393,6950.199,96.107,574.15,569.979,0.0
56807.0,STARLINK-6073,PAYLOAD,2024-07-05 01:46:58,14.9647579,0.0001589,69.999,68.9157,286.5897,73.5086,-0.021289,-0.0023429,0.0,0 STARLINK-6073,1 56807U 23078AS  24187.07428833 -.00234290  00000-0 -21289-1 0  9998,2 56807  69.9990  68.9157 0001589 286.5897  73.5086 14.96475790 61675,6955.933,96.226,578.903,576.693,0.0
56807.0,STARLINK-6073,PAYLOAD,2024-07-05 14:00:01,14.98305465,0.0003141,70.0011,67.6225,264.9642,328.9946,0.0057377,0.00069003,0.0,0 STARLINK-6073,1 56807U 23078AS  24187.58334491  .00069003  00000-0  57377-2 0  9994,2 56807  70.0011  67.6225 0003141 264.9642 328.9946 14.98305465 61752,6950.269,96.109,574.317,569.951,0.0
56807.0,STARLINK-6073,PAYLOAD,2024-07-05 16:00:00,14.98331156,0.0003132,70.0013,67.4124,264.6358,58.6812,0.0025294,0.00030219,0.0,0 STARLINK-6073,1 56807U 23078AS  24187.66667824  .00030219  00000-0  25294-2 0  9992,2 56807  70.0013  67.4124 0003132 264.6358  58.6812 14.98331156  5776,6950.189,96.107,574.231,569.878,0.0
56807.0,STARLINK-6073,PAYLOAD,2024-07-06 21:00:15,14.9832722,0.000297,69.9994,64.3639,269.756,90.3259,-9.1483e-06,-2.02e-06,0.0,0 STARLINK-6073,1 56807U 23078AS  24188.87517513 -.00000202  00000-0 -91483-5 0  9992,2 56807  69.9994  64.3639 0002970 269.7560  90.3259 14.98327220 61944,6950.201,96.107,574.131,570.002,0.0
56807.0,STARLINK-6073,PAYLOAD,2024-07-06 22:36:23,14.98330613,0.0003056,69.9994,64.1964,269.0759,91.005,-3.2912e-05,-4.86e-06,0.0,0 STARLINK-6073,1 56807U 23078AS  24188.94193385 -.00000486  00000-0 -32912-4 0  9992,2 56807  69.9994  64.1964 0003056 269.0759  91.0050 14.98330613 61691,6950.191,96.107,574.18,569.932,0.0
56807.0,STARLINK-6073,PAYLOAD,2024-07-07 01:48:39,14.98329234,0.0002868,69.9996,63.8598,265.7594,94.3237,-1.2487e-05,-2.42e-06,0.0,0 STARLINK-6073,1 56807U 23078AS  24189.07545438 -.00000242  00000-0 -12487-4 0  9992,2 56807  69.9996  63.8598 0002868 265.7594  94.3237 14.98329234 61715,6950.195,96.107,574.054,570.067,0.0
56807.0,STARLINK-6073,PAYLOAD,2024-07-07 21:02:15,14.98333443,0.0002986,69.9996,61.8399,269.7126,90.3691,-1.4269e-05,-2.63e-06,0.0,0 STARLINK-6073,1 56807U 23078AS  24189.87657126 -.00000263  00000-0 -14269-4 0  9991,2 56807  69.9996  61.8399 0002986 269.7126  90.3691 14.98333443 62097,6950.182,96.107,574.123,569.972,0.0
56807.0,STARLINK-6073,PAYLOAD,2024-07-08 08:15:12,14.98340176,0.0002886,69.9998,60.6615,268.5073,91.5756,-0.00018968,-2.356e-05,0.0,0 STARLINK-6073,1 56807U 23078AS  24190.34388953 -.00002356  00000-0 -18968-3 0  9998,2 56807  69.9998  60.6615 0002886 268.5073  91.5756 14.98340176 61909,6950.161,96.106,574.032,570.021,0.0
56807.0,STARLINK-6073,PAYLOAD,2024-07-08 21:04:17,14.98324578,0.0002862,69.9998,59.3149,272.1685,87.9147,-2.2303e-05,-3.59e-06,0.0,0 STARLINK-6073,1 56807U 23078AS  24190.87797665 -.00000359  00000-0 -22303-4 0  9990,2 56807  69.9998  59.3149 0002862 272.1685  87.9147 14.98324578 62249,6950.21,96.107,574.064,570.086,0.0
56807.0,STARLINK-6073,PAYLOAD,2024-07-08 22:40:25,14.98325563,0.000281,69.9998,59.147,270.6398,89.4439,3.482e-06,-5.1e-07,0.0,0 STARLINK-6073,1 56807U 23078AS  24190.94473540 -.00000051  00000-0  34820-5 0  9997,2 56807  69.9998  59.1470 0002810 270.6398  89.4439 14.98325563 61998,6950.207,96.107,574.025,570.119,0.0
56807.0,STARLINK-6073,PAYLOAD,2024-07-09 08:17:13,14.98328419,0.0002802,69.9999,58.1373,269.7979,90.2859,4.0373e-06,-4.5e-07,0.0,0 STARLINK-6073,1 56807U 23078AS  24191.34529387 -.00000045  00000-0  40373-5 0  9996,2 56807  69.9999  58.1373 0002802 269.7979  90.2859 14.98328419 62052,6950.198,96.107,574.01,570.115,0.0
56807.0,STARLINK-6073,PAYLOAD,2024-07-09 19:30:09,14.98331794,0.0002814,69.9999,56.9588,267.5656,92.5181,-2.7471e-05,-4.21e-06,0.0,0 STARLINK-6073,1 56807U 23078AS  24191.81261194 -.00000421  00000-0 -27471-4 0  9999,2 56807  69.9999  56.9588 0002814 267.5656  92.5181 14.98331794 62386,6950.187,96.107,574.008,570.097,0.0
56807.0,STARLINK-6073,PAYLOAD,2024-07-09 21:06:17,14.98331525,0.0002819,69.9998,56.7905,267.5384,92.5452,-2.9746e-05,-4.48e-06,0.0,0 STARLINK-6073,1 56807U 23078AS  24191.87937210 -.00000448  00000-0 -29746-4 0  9990,2 56807  69.9998  56.7905 0002819 267.5384  92.5452 14.98331525 62135,6950.188,96.107,574.012,570.094,0.0
56807.0,STARLINK-6073,PAYLOAD,2024-07-10 08:19:14,14.98331237,0.0002841,69.9998,55.6117,271.4366,88.6468,-8.0233e-06,-1.89e-06,0.0,0 STARLINK-6073,1 56807U 23078AS  24192.34669113 -.00000189  00000-0 -80233-5 0  9998,2 56807  69.9998  55.6117 0002841 271.4366  88.6468 14.98331237 62208,6950.189,96.107,574.029,570.08,0.0
56807.0,STARLINK-6073,PAYLOAD,2024-07-10 22:44:26,14.983284,0.0002891,69.9996,54.0965,271.5199,88.5629,1.9419e-05,1.39e-06,0.0,0 STARLINK-6073,1 56807U 23078AS  24192.94753250  .00000139  00000-0  19419-4 0  9990,2 56807  69.9996  54.0965 0002891 271.5199  88.5629 14.98328400 62295,6950.198,96.107,574.072,570.054,0.0
